[
    {
        "Altitude(m)": 607886.7209389429,
        "Argument of Periapsis(deg)": 0.0,
        "Eccentricity": 0.0,
        "Inclination(deg)": 60.0,
        "Latitude(deg)": 40.998523533188326,
        "Longitude(deg)": 159.97302776731476,
        "Mean Anomaly(deg)": 49.09089999999999,
        "RAAN(deg)": 229.99999999999997,
        "Satellite Name": "Test1 1015",
        "Satellite Number": 1015,
        "Semi-Major Axis(m)": 6980739.136638005,
        "Time(s)": 0
    },
    {
        "Altitude(m)": 607987.6348618728,
        "Argument of Periapsis(deg)": 0.00010418945913296404,
        "Eccentricity": 0.0,
        "Inclination(deg)": 60.0,
        "Latitude(deg)": 41.46361310681454,
        "Longitude(deg)": 160.47725705007576,
        "Mean Anomaly(deg)": 49.711006145461845,
        "RAAN(deg)": 229.99957995086024,
        "Satellite Name": "Test1 1015",
        "Satellite Number": 1015,
        "Semi-Major Axis(m)": 6980739.136638005,
        "Time(s)": 10
    }
]